[
    {
        "CCSDS_OMM_VERS": "3.0",
        "COMMENT": "GENERATED VIA SPACE-TRACK.ORG API",
        "CREATION_DATE": "2025-03-02T18:08:23",
        "ORIGINATOR": "18 SPCS",
        "OBJECT_NAME": "COSMOS 2547 (GLONASS)",
        "OBJECT_ID": "2020-075A",
        "CENTER_NAME": "EARTH",
        "REF_FRAME": "TEME",
        "TIME_SYSTEM": "UTC",
        "MEAN_ELEMENT_THEORY": "SGP4",
        "EPOCH": "2025-03-01T20:46:36.694272",
        "MEAN_MOTION": "2.13102888",
        "ECCENTRICITY": "0.00062970",
        "INCLINATION": "64.5987",
        "RA_OF_ASC_NODE": "208.2447",
        "ARG_OF_PERICENTER": "231.8964",
        "MEAN_ANOMALY": "128.0106",
        "EPHEMERIS_TYPE": "0",
        "CLASSIFICATION_TYPE": "U",
        "NORAD_CAT_ID": "46805",
        "ELEMENT_SET_NO": "999",
        "REV_AT_EPOCH": "3384",
        "BSTAR": "0.00000000000000",
        "MEAN_MOTION_DOT": "0.00000052",
        "MEAN_MOTION_DDOT": "0.0000000000000",
        "SEMIMAJOR_AXIS": "25507.954",
        "PERIOD": "675.730",
        "APOAPSIS": "19145.881",
        "PERIAPSIS": "19113.756",
        "OBJECT_TYPE": "PAYLOAD",
        "RCS_SIZE": "LARGE",
        "COUNTRY_CODE": "CIS",
        "LAUNCH_DATE": "2020-10-25",
        "SITE": "PKMTR",
        "DECAY_DATE": null,
        "FILE": "4657142",
        "GP_ID": "282088544",
        "TLE_LINE0": "0 COSMOS 2547 (GLONASS)",
        "TLE_LINE1": "1 46805U 20075A   25060.86570248  .00000052  00000-0  00000-0 0  9997",
        "TLE_LINE2": "2 46805  64.5987 208.2447 0006297 231.8964 128.0106  2.13102888 33847"
    }
]